[{"OBJECT_NAME":"STARLINK-1296","OBJECT_ID":"2020-019BE","EPOCH":"2026-03-09T13:32:04.441920","MEAN_MOTION":15.30190046,"ECCENTRICITY":0.0001519,"INCLINATION":53.1594,"RA_OF_ASC_NODE":129.8314,"ARG_OF_PERICENTER":88.1784,"MEAN_ANOMALY":271.939,"EPHEMERIS_TYPE":0,"CLASSIFICATION_TYPE":"U","NORAD_CAT_ID":45412,"ELEMENT_SET_NO":999,"REV_AT_EPOCH":32995,"BSTAR":1.1663e-5,"MEAN_MOTION_DOT":-1.4e-7,"MEAN_MOTION_DDOT":0},{"OBJECT_NAME":"OBJECT D","OBJECT_ID":"2024-174D","EPOCH":"2026-03-10T00:15:10.483200","MEAN_MOTION":15.28039787,"ECCENTRICITY":0.00110644,"INCLINATION":97.4441,"RA_OF_ASC_NODE":80.4677,"ARG_OF_PERICENTER":212.9968,"MEAN_ANOMALY":147.0582,"EPHEMERIS_TYPE":0,"CLASSIFICATION_TYPE":"U","NORAD_CAT_ID":61241,"ELEMENT_SET_NO":999,"REV_AT_EPOCH":8076,"BSTAR":0.00036340099,"MEAN_MOTION_DOT":9.884e-5,"MEAN_MOTION_DDOT":0}]
